0 BEIDOU IGSO 4
1 37763U 11038A   13281.62676218 -.00000095  00000-0  10000-3 0  5065
2 37763 054.8280 209.0638 0024687 193.8252 294.2354 01.00289002  8177
0 BEIDOU IGSO 4
1 37763U 11038A   13282.63989925 -.00000097  00000-0  10000-3 0  5072
2 37763 054.8273 209.0537 0024697 193.8241 300.0271 01.00288776  8188
0 BEIDOU IGSO 4
1 37763U 11038A   13283.76281333 -.00000105  00000-0  10000-3 0  5086
2 37763 054.8268 209.0427 0024679 193.8065 345.4697 01.00288544  8193
0 BEIDOU IGSO 4
1 37763U 11038A   13285.96668991 -.00000128  00000-0  10000-3 0  5107
2 37763 054.8257 209.0209 0024719 193.7728 061.2046 01.00288106  8217
0 BEIDOU IGSO 4
1 37763U 11038A   13286.97852572 -.00000137  00000-0  10000-3 0  5110
2 37763 054.8252 209.0109 0024699 193.7636 066.5325 01.00287911  8228
0 BEIDOU IGSO 4
1 37763U 11038A   13287.99549547 -.00000142  00000-0  10000-3 0  5125
2 37763 054.8247 209.0011 0024700 193.6715 073.7938 01.00287670  8237
0 BEIDOU IGSO 4
1 37763U 11038A   13289.89024898 -.00000138  00000-0  10000-3 0  5139
2 37763 054.8238 208.9825 0024692 193.6985 037.8544 01.00287283  8253
0 BEIDOU IGSO 4
1 37763U 11038A   13290.24584260  .00000000  00000-0  10000-3 0  5142
2 37763 054.8236 208.9786 0024801 193.3410 166.5906 01.00286110  8259
0 BEIDOU IGSO 4
1 37763U 11038A   13290.97138377 -.00000129  00000-0  10000-3 0  5149
2 37763 054.8233 208.9718 0024672 193.6616 068.2259 01.00287056  8268
0 BEIDOU IGSO 4
1 37763U 11038A   13291.98482705 -.00000119  00000-0  10000-3 0  5158
2 37763 054.8227 208.9612 0024799 193.3057 074.4720 01.00286799  8276
0 BEIDOU IGSO 4
1 37763U 11038A   13293.50906488 -.00000105  00000-0  10000-3 0  5163
2 37763 054.8221 208.9462 0024814 193.2658 264.8233 01.00286496  8297
0 BEIDOU IGSO 4
1 37763U 11038A   13294.58904885 -.00000098  00000-0  10000-3 0  5173
2 37763 054.8216 208.9355 0024816 193.2011 294.8048 01.00286285  8302
